HERMES-2                
1 63243U 25052AK  26068.92847372  .00009456  00000+0  34839-3 0  9999
2 63243  97.4004 324.4926 0006340  99.4160 260.7796 15.28021069 54859
STARLINK-34084          
1 63970U 25099U   26068.31320459  .00042448  00000+0  15427-2 0  9991
2 63970  42.9963 177.9147 0000559 254.2506 105.8284 15.27590814 47280
